ORBCOMM FM103           
1 40091U 14040F   23298.14825539  .00000880  00000+0  23579-3 0  9998
2 40091  47.0069 331.1345 0001447  14.0604 346.0320 14.55999575476456
ORBCOMM FM114           
1 41179U 15081A   23298.86977661  .00001033  00000+0  27008-3 0  9997
2 41179  47.0029 237.0910 0001026  97.8956 262.2045 14.56011331416929
ORBCOMM FM110           
1 41182U 15081D   23298.22916386  .00001312  00000+0  33286-3 0  9993
2 41182  47.0017 239.5315 0002541 301.6628  58.4009 14.56017008416709
ORBCOMM FM118           
1 41183U 15081E   23298.20641437  .00001290  00000+0  32786-3 0  9993
2 41183  47.0039 239.9043 0002758 298.8635  61.1973 14.56020960416804
ORBCOMM FM112           
1 41184U 15081F   23298.88366293  .00000864  00000+0  23210-3 0  9990
2 41184  46.9978 145.4728 0001511 174.7156 185.3744 14.55991852418120
ORBCOMM FM113           
1 41185U 15081G   23298.85982565  .00000915  00000+0  24353-3 0  9990
2 41185  46.9997 145.8075 0001186 194.9860 165.0990 14.56013700418109
ORBCOMM FM119 [-]       
1 41180U 15081B   23298.63122525  .00000741  00000+0  20443-3 0  9996
2 41180  46.9997 147.4065 0001542 198.2678 161.8152 14.55994361418149
ORBCOMM FM105 [-]       
1 41181U 15081C   23298.54551179  .00000402  00000+0  16183-3 0  9998
2 41181  47.0008  96.8285 0001809 167.6008 192.4917 14.44067610413903
